[{"OBJECT_NAME":"HUBBLE 7","OBJECT_ID":"2025-135BS","EPOCH":"2026-03-09T22:34:38.564832","MEAN_MOTION":14.93574527,"ECCENTRICITY":0.00025753,"INCLINATION":97.7624,"RA_OF_ASC_NODE":184.774,"ARG_OF_PERICENTER":333.1877,"MEAN_ANOMALY":26.921,"EPHEMERIS_TYPE":0,"CLASSIFICATION_TYPE":"U","NORAD_CAT_ID":64592,"ELEMENT_SET_NO":999,"REV_AT_EPOCH":3909,"BSTAR":0.00045783206,"MEAN_MOTION_DOT":4.773e-5,"MEAN_MOTION_DDOT":0},{"OBJECT_NAME":"DMSP 5D-2 F12 DEB","OBJECT_ID":"1994-057D","EPOCH":"2026-03-09T16:53:24.857088","MEAN_MOTION":14.9537003,"ECCENTRICITY":0.00045084,"INCLINATION":98.0659,"RA_OF_ASC_NODE":110.2499,"ARG_OF_PERICENTER":136.2971,"MEAN_ANOMALY":344.9264,"EPHEMERIS_TYPE":0,"CLASSIFICATION_TYPE":"U","NORAD_CAT_ID":23250,"ELEMENT_SET_NO":999,"REV_AT_EPOCH":65299,"BSTAR":0.0022486615,"MEAN_MOTION_DOT":0.00024839,"MEAN_MOTION_DDOT":0}]
